{
  "norad_id": 67319,
  "name": "STARLINK-36470",
  "history": [
    {
      "epoch": "2026-05-08T21:19:44.446368Z",
      "apogee_km": 484.16312873871993,
      "perigee_km": 481.8083914074623,
      "latitude_deg": 5.2047085768883666e-05,
      "longitude_deg": 158.8129911508453,
      "height_km": 482.70525881911817,
      "semi_major_axis_km": 6861.122760073091,
      "eccentricity": 0.0001716,
      "inclination_deg": 43.0032,
      "raan_deg": 345.4623,
      "arg_perigee_deg": 272.8146,
      "mean_anomaly_deg": 87.251,
      "mean_motion_rev_day": 15.27601152
    },
    {
      "epoch": "2026-05-09T20:52:05.570688Z",
      "apogee_km": 484.33344511027826,
      "perigee_km": 481.78931275137165,
      "latitude_deg": 4.0838052507509785e-05,
      "longitude_deg": 159.2188385336558,
      "height_km": 482.8978046687913,
      "semi_major_axis_km": 6861.198378930825,
      "eccentricity": 0.0001854,
      "inclination_deg": 43.0014,
      "raan_deg": 339.9229,
      "arg_perigee_deg": 267.3317,
      "mean_anomaly_deg": 92.7323,
      "mean_motion_rev_day": 15.27575898
    },
    {
      "epoch": "2026-05-10T15:41:58.357824Z",
      "apogee_km": 484.122404507224,
      "perigee_km": 481.9611331950355,
      "latitude_deg": 1.3615280991557077e-05,
      "longitude_deg": -128.45511304862202,
      "height_km": 482.9629365450821,
      "semi_major_axis_km": 6861.1787688511295,
      "eccentricity": 0.0001575,
      "inclination_deg": 43.0031,
      "raan_deg": 335.4923,
      "arg_perigee_deg": 262.3417,
      "mean_anomaly_deg": 97.7256,
      "mean_motion_rev_day": 15.27582447
    },
    {
      "epoch": "2026-05-11T19:56:47.210208Z",
      "apogee_km": 483.9017218901672,
      "perigee_km": 482.13703246995556,
      "latitude_deg": 1.7546182083818883e-05,
      "longitude_deg": 160.03477999491858,
      "height_km": 482.8661829592525,
      "semi_major_axis_km": 6861.156377180061,
      "eccentricity": 0.0001286,
      "inclination_deg": 43.002,
      "raan_deg": 328.8458,
      "arg_perigee_deg": 265.4502,
      "mean_anomaly_deg": 94.6203,
      "mean_motion_rev_day": 15.27589925
    },
    {
      "epoch": "2026-05-12T19:29:07.745280Z",
      "apogee_km": 484.04359455719623,
      "perigee_km": 481.99457890345457,
      "latitude_deg": 3.283792057092985e-05,
      "longitude_deg": 160.44371997921402,
      "height_km": 482.78205812953246,
      "semi_major_axis_km": 6861.156086730325,
      "eccentricity": 0.00014932,
      "inclination_deg": 43.0011,
      "raan_deg": 323.307,
      "arg_perigee_deg": 270.7789,
      "mean_anomaly_deg": 89.2892,
      "mean_motion_rev_day": 15.27590022
    },
    {
      "epoch": "2026-05-13T04:54:03.742272Z",
      "apogee_km": 484.0141309852552,
      "perigee_km": 481.99215298541276,
      "latitude_deg": 1.5391063857781817e-05,
      "longitude_deg": 16.608497712476687,
      "height_km": 482.7649282161064,
      "semi_major_axis_km": 6861.140141985334,
      "eccentricity": 0.00014735,
      "inclination_deg": 43.0006,
      "raan_deg": 321.0918,
      "arg_perigee_deg": 270.8525,
      "mean_anomaly_deg": 89.2158,
      "mean_motion_rev_day": 15.27595347
    }
  ]
}